ALOS-2                  
1 39766U 14029A   26204.25511654  .00001165  00000+0  16281-3 0  9993
2 39766  97.9224 300.9037 0001614  94.8947 265.2448 14.79473785656914
KAZEOSAT 2              
1 40010U 14033A   26204.33471204  .00000309  00000+0  41597-4 0  9995
2 40010  97.5403  42.0348 0007989 189.6088 170.4976 14.85506944654329
HODOYOSHI-4             
1 40011U 14033B   26204.27558817  .00001812  00000+0  20114-3 0  9996
2 40011  97.5471  27.3596 0023384 181.9045 178.2088 14.88205160654173
DEIMOS-2                
1 40013U 14033D   26204.28873959  .00001005  00000+0  99825-4 0  9996
2 40013  97.5787  77.5018 0001531 103.2207 256.9185 14.93813350643114
HODOYOSHI-3             
1 40015U 14033F   26203.88708641  .00001005  00000+0  12166-3 0  9990
2 40015  97.6454   5.4994 0031571 235.4440 124.3795 14.85449421652924
SPOT 7                  
1 40053U 14034A   26204.27493215  .00000180  00000+0  45943-4 0  9998
2 40053  98.0608 265.8333 0001682  95.1598 264.9795 14.60985190642400
SKYSAT-B                
1 40072U 14037D   26202.62025596  .00000881  00000+0  10248-3 0  9999
2 40072  98.3858 163.5543 0006020 153.0763 207.0765 14.88102443651088
WORLDVIEW-3 (WV-3)      
1 40115U 14048A   26204.28255308  .00000651  00000+0  82501-4 0  9996
2 40115  97.8550 278.6150 0001868 143.3891 216.7452 14.85073409647261
GAOFEN-2                
1 40118U 14049A   26204.32459655  .00000240  00000+0  37879-4 0  9998
2 40118  98.0089 268.4938 0008648 112.2250 247.9880 14.80933260644580
YAOGAN-21               
1 40143U 14053A   26204.27859186  .00003677  00000+0  14205-3 0  9992
2 40143  97.1463 242.9724 0006656 338.3577  21.7380 15.26833343660464
YAOGAN-22               
1 40275U 14063A   26204.15782458 -.00000011  00000+0  94322-4 0  9992
2 40275 100.7772 356.0357 0006911 108.9083 251.2778 13.15531721564544
ASNARO                  
1 40298U 14070A   26204.24455421  .00006592  00000+0  31387-3 0  9992
2 40298  97.3435 279.3864 0004534  69.5565 290.6157 15.19462689649489
YAOGAN-24               
1 40310U 14072A   26204.34723536  .00000812  00000+0  12512-3 0  9993
2 40310  98.1534 341.9952 0015258 144.4858 215.7370 14.76126172629052
CBERS 4                 
1 40336U 14079A   26204.28210711 -.00000021  00000+0  74233-5 0  9990
2 40336  98.3512 259.9775 0000546  79.4263 280.6984 14.35517262609138
YAOGAN-26               
1 40362U 14088A   26204.26714221  .00028228  00000+0  52755-3 0  9993
2 40362  97.0659 203.6675 0001051 257.4284 102.6850 15.48707624643280
SMAP                    
1 40376U 15003A   26204.18224025  .00000348  00000+0  76461-4 0  9999
2 40376  98.1288 210.7689 0001636  92.3440 267.7950 14.63394043612887
KOMPSAT-3A              
1 40536U 15014A   26204.15183260  .00037373  00000+0  50524-3 0  9990
2 40536  97.6900 198.1952 0054982  47.5182 313.0699 15.55821110627400
SENTINEL-2A             
1 40697U 15028A   26204.29862678 -.00000022  00000+0  81350-5 0  9990
2 40697  98.5669 278.6352 0001347  97.9035 262.2301 14.30815885578898
GAOFEN-8                
1 40701U 15030A   26204.31992322  .00014267  00000+0  28222-3 0  9994
2 40701  97.6904  39.8912 0009680  70.4660 289.7634 15.47173203617036
CARBONITE 1 (CBNT-1)    
1 40718U 15032D   26204.26469862  .00001948  00000+0  24155-3 0  9999
2 40718  97.6536  20.8259 0014633 169.9358 190.2152 14.83687018594691
YAOGAN-27               
1 40878U 15040A   26204.29046653 -.00000001  00000+0  10817-3 0  9997
2 40878 100.1184 189.1099 0008777 127.4458 232.7455 13.16072796522415
GAOFEN-9 01             
1 40894U 15047A   26204.29724888  .00000911  00000+0  11781-3 0  9995
2 40894  97.6262 238.3493 0027857  24.7523 335.5021 14.82946831585545
YAOGAN-28               
1 41026U 15064A   26204.34919829  .00007120  00000+0  26408-3 0  9990
2 41026  97.3112 341.8938 0011839  67.8199 292.4296 15.27838519596201
YAOGAN-29               
1 41038U 15069A   26204.34036465 -.00000102  00000+0 -59048-5 0  9997
2 41038  98.0026 233.0282 0000086 120.0370 240.0852 14.83109806575985
KENT RIDGE 1            
1 41167U 15077B   26203.78537804  .00003280  00000+0  10289-3 0  9999
2 41167  14.9809   1.2040 0008263  21.6474 338.4197 15.23314624586535
GAOFEN-4                
1 41194U 15083A   26202.59970686 -.00000333  00000+0  00000+0 0  9996
2 41194   0.4439  83.8614 0004162 121.1097  55.9718  1.00270335 38877
JASON-3                 
1 41240U 16002A   26204.27459270 -.00000041  00000+0  83866-4 0  9990
2 41240  66.0415  49.9651 0008121 270.1211  89.8877 12.87628994491899
SENTINEL-3A             
1 41335U 16011A   26204.26329476  .00000067  00000+0  45588-4 0  9994
2 41335  98.6231 271.1252 0001289  86.9699 273.1629 14.26735984543207
ZIYUAN 3-02 (ZY 3-02)   
1 41556U 16033A   26204.29962414  .00005783  00000+0  26203-3 0  9993
2 41556  97.3820 279.3786 0013580 159.9488 200.2285 15.21161468563474
CARTOSAT-2C             
1 41599U 16040A   26204.28572146  .00003997  00000+0  19241-3 0  9995
2 41599  97.4465 263.7626 0008711  20.3965 339.7616 15.19308789559194
