OBJECT_NAME,OBJECT_ID,EPOCH,MEAN_MOTION,ECCENTRICITY,INCLINATION,RA_OF_ASC_NODE,ARG_OF_PERICENTER,MEAN_ANOMALY,EPHEMERIS_TYPE,CLASSIFICATION_TYPE,NORAD_CAT_ID,ELEMENT_SET_NO,REV_AT_EPOCH,BSTAR,MEAN_MOTION_DOT,MEAN_MOTION_DDOT
ALOS-2,2014-029A,2026-07-23T06:07:22.069056,14.79473785,.00016147,97.9224,300.9037,94.8947,265.2448,0,U,39766,999,65691,.16281496E-3,.1165E-4,0
KAZEOSAT 2,2014-033A,2026-07-23T08:01:59.120256,14.85506944,.00079892,97.5403,42.0348,189.6088,170.4976,0,U,40010,999,65432,.41597075E-4,.309E-5,0
HODOYOSHI-4,2014-033B,2026-07-23T06:36:50.817888,14.88205160,.00233841,97.5471,27.3596,181.9045,178.2088,0,U,40011,999,65417,.20113795E-3,.1812E-4,0
DEIMOS-2,2014-033D,2026-07-23T06:55:47.100576,14.93813350,.0001531,97.5787,77.5018,103.2207,256.9185,0,U,40013,999,64311,.99824988E-4,.1005E-4,0
HODOYOSHI-3,2014-033F,2026-07-22T21:17:24.265824,14.85449421,.00315714,97.6454,5.4994,235.4440,124.3795,0,U,40015,999,65292,.12165765E-3,.1005E-4,0
SPOT 7,2014-034A,2026-07-23T06:35:54.137760,14.60985190,.00016828,98.0608,265.8333,95.1598,264.9795,0,U,40053,999,64240,.45943301E-4,.18E-5,0
SKYSAT-B,2014-037D,2026-07-21T14:53:10.114944,14.88102443,.00060203,98.3858,163.5543,153.0763,207.0765,0,U,40072,999,65108,.10248307E-3,.881E-5,0
WORLDVIEW-3 (WV-3),2014-048A,2026-07-23T06:46:52.586112,14.85073409,.00018688,97.8550,278.6150,143.3891,216.7452,0,U,40115,999,64726,.82501471E-4,.651E-5,0
GAOFEN-2,2014-049A,2026-07-23T07:47:25.141920,14.80933260,.0008648,98.0089,268.4938,112.2250,247.9880,0,U,40118,999,64458,.37879236E-4,.24E-5,0
YAOGAN-21,2014-053A,2026-07-23T06:41:10.336704,15.26833343,.00066567,97.1463,242.9724,338.3577,21.7380,0,U,40143,999,66046,.14204531E-3,.3677E-4,0
YAOGAN-22,2014-063A,2026-07-23T03:47:16.043712,13.15531721,.00069119,100.7772,356.0357,108.9083,251.2778,0,U,40275,999,56454,.94322306E-4,-.11E-6,0
ASNARO,2014-070A,2026-07-23T05:52:09.483744,15.19462689,.00045341,97.3435,279.3864,69.5565,290.6157,0,U,40298,999,64948,.3138736E-3,.6592E-4,0
YAOGAN-24,2014-072A,2026-07-23T08:20:01.135104,14.76126172,.00152588,98.1534,341.9952,144.4858,215.7370,0,U,40310,999,62905,.1251151E-3,.812E-5,0
CBERS 4,2014-079A,2026-07-23T06:46:14.054304,14.35517262,.00005462,98.3512,259.9775,79.4263,280.6984,0,U,40336,999,60913,.7423282E-5,-.21E-6,0
YAOGAN-26,2014-088A,2026-07-23T06:24:41.086944,15.48707624,.00010514,97.0659,203.6675,257.4284,102.6850,0,U,40362,999,64328,.52754943E-3,.28228E-3,0
SMAP,2015-003A,2026-07-23T04:22:25.557600,14.63394043,.00016364,98.1288,210.7689,92.3440,267.7950,0,U,40376,999,61288,.76461089E-4,.348E-5,0
KOMPSAT-3A,2015-014A,2026-07-23T03:38:38.336640,15.55821110,.00549823,97.6900,198.1952,47.5182,313.0699,0,U,40536,999,62740,.5052398E-3,.37373E-3,0
SENTINEL-2A,2015-028A,2026-07-23T07:10:01.353792,14.30815885,.0001347,98.5669,278.6352,97.9035,262.2301,0,U,40697,999,57889,.8134966E-5,-.22E-6,0
GAOFEN-8,2015-030A,2026-07-23T07:40:41.366208,15.47173203,.00096809,97.6904,39.8912,70.4660,289.7634,0,U,40701,999,61703,.28222395E-3,.14267E-3,0
CARBONITE 1 (CBNT-1),2015-032D,2026-07-23T06:21:09.960768,14.83687018,.00146332,97.6536,20.8259,169.9358,190.2152,0,U,40718,999,59469,.24155203E-3,.1948E-4,0
YAOGAN-27,2015-040A,2026-07-23T06:58:16.308192,13.16072796,.00087777,100.1184,189.1099,127.4458,232.7455,0,U,40878,999,52241,.10816644E-3,-.1E-7,0
GAOFEN-9 01,2015-047A,2026-07-23T07:08:02.303232,14.82946831,.00278578,97.6262,238.3493,24.7523,335.5021,0,U,40894,999,58554,.11781031E-3,.911E-5,0
YAOGAN-28,2015-064A,2026-07-23T08:22:50.732256,15.27838519,.00118391,97.3112,341.8938,67.8199,292.4296,0,U,41026,999,59620,.26408086E-3,.712E-4,0
YAOGAN-29,2015-069A,2026-07-23T08:10:07.505760,14.83109806,.0000086,98.0026,233.0282,120.0370,240.0852,0,U,41038,999,57598,-.5904819E-5,-.102E-5,0
KENT RIDGE 1,2015-077B,2026-07-22T18:50:56.662656,15.23314624,.00082639,14.9809,1.2040,21.6474,338.4197,0,U,41167,999,58653,.10289083E-3,.328E-4,0
GAOFEN-4,2015-083A,2026-07-21T14:23:34.672704,1.00270335,.00041624,0.4439,83.8614,121.1097,55.9718,0,U,41194,999,3887,0,-.333E-5,0
JASON-3,2016-002A,2026-07-23T06:35:24.809280,12.87628994,.00081216,66.0415,49.9651,270.1211,89.8877,0,U,41240,999,49189,.83865641E-4,-.41E-6,0
SENTINEL-3A,2016-011A,2026-07-23T06:19:08.667264,14.26735984,.00012899,98.6231,271.1252,86.9699,273.1629,0,U,41335,999,54320,.45588443E-4,.67E-6,0
ZIYUAN 3-02 (ZY 3-02),2016-033A,2026-07-23T07:11:27.525696,15.21161468,.00135803,97.3820,279.3786,159.9488,200.2285,0,U,41556,999,56347,.26202695E-3,.5783E-4,0
CARTOSAT-2C,2016-040A,2026-07-23T06:51:26.334144,15.19308789,.00087116,97.4465,263.7626,20.3965,339.7616,0,U,41599,999,55919,.19240974E-3,.3997E-4,0
